STARLINK-11253 [DTC]    
1 60935U 24155M   26081.83983195  .00002852  00000+0  28365-4 0  9997
2 60935  53.1580 276.7242 0001040  74.9043 285.2090 15.69733653 90462
STARLINK-11241 [DTC]    
1 60936U 24155N   26081.83493873 -.00000870  00000+0 -23275-5 0  9993
2 60936  53.1591 276.6932 0000874 115.8352 244.2757 15.69711524 90460
STARLINK-32259          
1 60937U 24155P   26082.24326903 -.00000366  00000+0 -22911-6 0  9996
2 60937  53.1598  66.8797 0001211  80.9639 279.1499 15.30189132 88416
STARLINK-32262          
1 60938U 24155Q   26082.25001157  .00117235  00000+0  14488-2 0  9997
2 60938  53.1508  46.2539 0006834  92.1209 122.1973 15.59260636  5916
STARLINK-32258          
1 60939U 24155R   26082.16423637 -.00001184  00000+0 -27867-4 0  9993
2 60939  53.1604  67.0940 0001429  81.8726 278.2437 15.30189238 88359
STARLINK-32251          
1 60940U 24155S   26082.23587305  .00000692  00000+0  35496-4 0  9994
2 60940  53.1606  66.8313 0001603  81.3172 278.8011 15.30189065 88417
STARLINK-32224          
1 60941U 24155T   26082.23269855  .00000702  00000+0  35810-4 0  9994
2 60941  53.1605  66.8099 0001313  74.4146 285.7000 15.30208931 88420
STARLINK-32184          
1 60942U 24155U   26082.24010010 -.00000713  00000+0 -11940-4 0  9995
2 60942  53.1621  66.8598 0001360  83.2213 276.8942 15.30192546 88361
STARLINK-32288          
1 60943U 24155V   26082.24959829 -.00001398  00000+0 -35113-4 0  9994
2 60943  53.1587  66.9134 0000823  85.6330 274.4764 15.30192794 88360
STARLINK-32276          
1 60944U 24155W   26082.24642885 -.00001800  00000+0 -48642-4 0  9995
2 60944  53.1596  66.8932 0001527  75.9806 284.1365 15.30202217 88466
STARLINK-11289 [DTC]    
1 60991U 24158B   26081.71733621  .00001148  00000+0  14344-4 0  9995
2 60991  53.1564 216.8296 0001361  86.6461 273.4713 15.69701951 89645
STARLINK-11282 [DTC]    
1 60992U 24158C   26081.79571689  .00000630  00000+0  10055-4 0  9998
2 60992  53.1592 216.6178 0000694  47.8519 312.2558 15.69710224 89658
STARLINK-11283 [DTC]    
1 60993U 24158D   26081.83005999 -.00001246  00000+0 -54303-5 0  9991
2 60993  53.1592 216.8435 0000973  56.9680 303.1431 15.69713153 89650
STARLINK-11267 [DTC]    
1 60994U 24158E   26081.76148847  .00003997  00000+0  37843-4 0  9996
2 60994  53.1581 217.1262 0000877 118.6824 241.4282 15.69700259 89640
STARLINK-11269 [DTC]    
1 60995U 24158F   26082.07489524  .00000882  00000+0  12112-4 0  9994
2 60995  53.1584 215.5196 0000482 123.5377 236.5687 15.69742090 89689
STARLINK-11281 [DTC]    
1 60996U 24158G   26082.06999852  .00003008  00000+0  29634-4 0  9994
2 60996  53.1579 215.4860 0000817  87.5251 272.5861 15.69741940 89680
