[{"OBJECT_NAME":"STARLINK-11253 [DTC]","OBJECT_ID":"2024-155M","EPOCH":"2026-03-22T20:09:21.480480","MEAN_MOTION":15.69733653,"ECCENTRICITY":0.00010406,"INCLINATION":53.158,"RA_OF_ASC_NODE":276.7242,"ARG_OF_PERICENTER":74.9043,"MEAN_ANOMALY":285.209,"EPHEMERIS_TYPE":0,"CLASSIFICATION_TYPE":"U","NORAD_CAT_ID":60935,"ELEMENT_SET_NO":999,"REV_AT_EPOCH":9046,"BSTAR":2.8364716e-5,"MEAN_MOTION_DOT":2.852e-5,"MEAN_MOTION_DDOT":0},{"OBJECT_NAME":"STARLINK-11241 [DTC]","OBJECT_ID":"2024-155N","EPOCH":"2026-03-22T20:02:18.706272","MEAN_MOTION":15.69711524,"ECCENTRICITY":8.748e-5,"INCLINATION":53.1591,"RA_OF_ASC_NODE":276.6932,"ARG_OF_PERICENTER":115.8352,"MEAN_ANOMALY":244.2757,"EPHEMERIS_TYPE":0,"CLASSIFICATION_TYPE":"U","NORAD_CAT_ID":60936,"ELEMENT_SET_NO":999,"REV_AT_EPOCH":9046,"BSTAR":-2.32747e-6,"MEAN_MOTION_DOT":-8.7e-6,"MEAN_MOTION_DDOT":0},{"OBJECT_NAME":"STARLINK-32259","OBJECT_ID":"2024-155P","EPOCH":"2026-03-23T05:50:18.444192","MEAN_MOTION":15.30189132,"ECCENTRICITY":0.00012114,"INCLINATION":53.1598,"RA_OF_ASC_NODE":66.8797,"ARG_OF_PERICENTER":80.9639,"MEAN_ANOMALY":279.1499,"EPHEMERIS_TYPE":0,"CLASSIFICATION_TYPE":"U","NORAD_CAT_ID":60937,"ELEMENT_SET_NO":999,"REV_AT_EPOCH":8841,"BSTAR":-2.29106e-7,"MEAN_MOTION_DOT":-3.66e-6,"MEAN_MOTION_DDOT":0},{"OBJECT_NAME":"STARLINK-32262","OBJECT_ID":"2024-155Q","EPOCH":"2026-03-23T06:00:00.999648","MEAN_MOTION":15.59260636,"ECCENTRICITY":0.00068342,"INCLINATION":53.1508,"RA_OF_ASC_NODE":46.2539,"ARG_OF_PERICENTER":92.1209,"MEAN_ANOMALY":122.1973,"EPHEMERIS_TYPE":0,"CLASSIFICATION_TYPE":"U","NORAD_CAT_ID":60938,"ELEMENT_SET_NO":999,"REV_AT_EPOCH":591,"BSTAR":0.0014488348,"MEAN_MOTION_DOT":0.00117235,"MEAN_MOTION_DDOT":0},{"OBJECT_NAME":"STARLINK-32258","OBJECT_ID":"2024-155R","EPOCH":"2026-03-23T03:56:30.022368","MEAN_MOTION":15.30189238,"ECCENTRICITY":0.00014297,"INCLINATION":53.1604,"RA_OF_ASC_NODE":67.094,"ARG_OF_PERICENTER":81.8726,"MEAN_ANOMALY":278.2437,"EPHEMERIS_TYPE":0,"CLASSIFICATION_TYPE":"U","NORAD_CAT_ID":60939,"ELEMENT_SET_NO":999,"REV_AT_EPOCH":8835,"BSTAR":-2.786698e-5,"MEAN_MOTION_DOT":-1.184e-5,"MEAN_MOTION_DDOT":0},{"OBJECT_NAME":"STARLINK-32251","OBJECT_ID":"2024-155S","EPOCH":"2026-03-23T05:39:39.431520","MEAN_MOTION":15.30189065,"ECCENTRICITY":0.00016034,"INCLINATION":53.1606,"RA_OF_ASC_NODE":66.8313,"ARG_OF_PERICENTER":81.3172,"MEAN_ANOMALY":278.8011,"EPHEMERIS_TYPE":0,"CLASSIFICATION_TYPE":"U","NORAD_CAT_ID":60940,"ELEMENT_SET_NO":999,"REV_AT_EPOCH":8841,"BSTAR":3.5495651e-5,"MEAN_MOTION_DOT":6.92e-6,"MEAN_MOTION_DDOT":0},{"OBJECT_NAME":"STARLINK-32224","OBJECT_ID":"2024-155T","EPOCH":"2026-03-23T05:35:05.154720","MEAN_MOTION":15.30208931,"ECCENTRICITY":0.00013133,"INCLINATION":53.1605,"RA_OF_ASC_NODE":66.8099,"ARG_OF_PERICENTER":74.4146,"MEAN_ANOMALY":285.7,"EPHEMERIS_TYPE":0,"CLASSIFICATION_TYPE":"U","NORAD_CAT_ID":60941,"ELEMENT_SET_NO":999,"REV_AT_EPOCH":8842,"BSTAR":3.5810152e-5,"MEAN_MOTION_DOT":7.02e-6,"MEAN_MOTION_DDOT":0},{"OBJECT_NAME":"STARLINK-32184","OBJECT_ID":"2024-155U","EPOCH":"2026-03-23T05:45:44.648640","MEAN_MOTION":15.30192546,"ECCENTRICITY":0.00013607,"INCLINATION":53.1621,"RA_OF_ASC_NODE":66.8598,"ARG_OF_PERICENTER":83.2213,"MEAN_ANOMALY":276.8942,"EPHEMERIS_TYPE":0,"CLASSIFICATION_TYPE":"U","NORAD_CAT_ID":60942,"ELEMENT_SET_NO":999,"REV_AT_EPOCH":8836,"BSTAR":-1.1939832e-5,"MEAN_MOTION_DOT":-7.13e-6,"MEAN_MOTION_DDOT":0},{"OBJECT_NAME":"STARLINK-32288","OBJECT_ID":"2024-155V","EPOCH":"2026-03-23T05:59:25.292256","MEAN_MOTION":15.30192794,"ECCENTRICITY":8.236e-5,"INCLINATION":53.1587,"RA_OF_ASC_NODE":66.9134,"ARG_OF_PERICENTER":85.633,"MEAN_ANOMALY":274.4764,"EPHEMERIS_TYPE":0,"CLASSIFICATION_TYPE":"U","NORAD_CAT_ID":60943,"ELEMENT_SET_NO":999,"REV_AT_EPOCH":8836,"BSTAR":-3.5112757e-5,"MEAN_MOTION_DOT":-1.398e-5,"MEAN_MOTION_DDOT":0},{"OBJECT_NAME":"STARLINK-32276","OBJECT_ID":"2024-155W","EPOCH":"2026-03-23T05:54:51.452640","MEAN_MOTION":15.30202217,"ECCENTRICITY":0.00015274,"INCLINATION":53.1596,"RA_OF_ASC_NODE":66.8932,"ARG_OF_PERICENTER":75.9806,"MEAN_ANOMALY":284.1365,"EPHEMERIS_TYPE":0,"CLASSIFICATION_TYPE":"U","NORAD_CAT_ID":60944,"ELEMENT_SET_NO":999,"REV_AT_EPOCH":8846,"BSTAR":-4.8641801e-5,"MEAN_MOTION_DOT":-1.8e-5,"MEAN_MOTION_DDOT":0},{"OBJECT_NAME":"STARLINK-11289 [DTC]","OBJECT_ID":"2024-158B","EPOCH":"2026-03-22T17:12:57.848544","MEAN_MOTION":15.69701951,"ECCENTRICITY":0.00013619,"INCLINATION":53.1564,"RA_OF_ASC_NODE":216.8296,"ARG_OF_PERICENTER":86.6461,"MEAN_ANOMALY":273.4713,"EPHEMERIS_TYPE":0,"CLASSIFICATION_TYPE":"U","NORAD_CAT_ID":60991,"ELEMENT_SET_NO":999,"REV_AT_EPOCH":8964,"BSTAR":1.4344142e-5,"MEAN_MOTION_DOT":1.148e-5,"MEAN_MOTION_DDOT":0},{"OBJECT_NAME":"STARLINK-11282 [DTC]","OBJECT_ID":"2024-158C","EPOCH":"2026-03-22T19:05:49.939296","MEAN_MOTION":15.69710224,"ECCENTRICITY":6.944e-5,"INCLINATION":53.1592,"RA_OF_ASC_NODE":216.6178,"ARG_OF_PERICENTER":47.8519,"MEAN_ANOMALY":312.2558,"EPHEMERIS_TYPE":0,"CLASSIFICATION_TYPE":"U","NORAD_CAT_ID":60992,"ELEMENT_SET_NO":999,"REV_AT_EPOCH":8965,"BSTAR":1.0055002e-5,"MEAN_MOTION_DOT":6.3e-6,"MEAN_MOTION_DDOT":0},{"OBJECT_NAME":"STARLINK-11283 [DTC]","OBJECT_ID":"2024-158D","EPOCH":"2026-03-22T19:55:17.183136","MEAN_MOTION":15.69713153,"ECCENTRICITY":9.736e-5,"INCLINATION":53.1592,"RA_OF_ASC_NODE":216.8435,"ARG_OF_PERICENTER":56.968,"MEAN_ANOMALY":303.1431,"EPHEMERIS_TYPE":0,"CLASSIFICATION_TYPE":"U","NORAD_CAT_ID":60993,"ELEMENT_SET_NO":999,"REV_AT_EPOCH":8965,"BSTAR":-5.430278e-6,"MEAN_MOTION_DOT":-1.246e-5,"MEAN_MOTION_DDOT":0},{"OBJECT_NAME":"STARLINK-11267 [DTC]","OBJECT_ID":"2024-158E","EPOCH":"2026-03-22T18:16:32.603808","MEAN_MOTION":15.69700259,"ECCENTRICITY":8.773e-5,"INCLINATION":53.1581,"RA_OF_ASC_NODE":217.1262,"ARG_OF_PERICENTER":118.6824,"MEAN_ANOMALY":241.4282,"EPHEMERIS_TYPE":0,"CLASSIFICATION_TYPE":"U","NORAD_CAT_ID":60994,"ELEMENT_SET_NO":999,"REV_AT_EPOCH":8964,"BSTAR":3.7843136e-5,"MEAN_MOTION_DOT":3.997e-5,"MEAN_MOTION_DDOT":0},{"OBJECT_NAME":"STARLINK-11269 [DTC]","OBJECT_ID":"2024-158F","EPOCH":"2026-03-23T01:47:50.948736","MEAN_MOTION":15.6974209,"ECCENTRICITY":4.829e-5,"INCLINATION":53.1584,"RA_OF_ASC_NODE":215.5196,"ARG_OF_PERICENTER":123.5377,"MEAN_ANOMALY":236.5687,"EPHEMERIS_TYPE":0,"CLASSIFICATION_TYPE":"U","NORAD_CAT_ID":60995,"ELEMENT_SET_NO":999,"REV_AT_EPOCH":8968,"BSTAR":1.211177e-5,"MEAN_MOTION_DOT":8.82e-6,"MEAN_MOTION_DDOT":0},{"OBJECT_NAME":"STARLINK-11281 [DTC]","OBJECT_ID":"2024-158G","EPOCH":"2026-03-23T01:40:47.872128","MEAN_MOTION":15.6974194,"ECCENTRICITY":8.171e-5,"INCLINATION":53.1579,"RA_OF_ASC_NODE":215.486,"ARG_OF_PERICENTER":87.5251,"MEAN_ANOMALY":272.5861,"EPHEMERIS_TYPE":0,"CLASSIFICATION_TYPE":"U","NORAD_CAT_ID":60996,"ELEMENT_SET_NO":999,"REV_AT_EPOCH":8968,"BSTAR":2.9634405e-5,"MEAN_MOTION_DOT":3.008e-5,"MEAN_MOTION_DDOT":0}]
